{"type": "FeatureCollection", "features": [ {"type": "Feature", "properties": {"norad_id": 30096, "name": "FENGYUN 1C DEB", "group": "fengyun-1c-debris", "lat": -76.84205611701044, "lon": -143.3101381602317, "alt_km": 770.9461920267504, "timestamp": "2025-12-26T06:43:29.785417+00:00", "meta": {"OBJECT_NAME": "FENGYUN 1C DEB", "OBJECT_ID": "1999-025QZ", "EPOCH": "2025-12-25T17:46:26.194080", "MEAN_MOTION": 14.31714216, "ECCENTRICITY": 0.00797123, "INCLINATION": 99.1465, "RA_OF_ASC_NODE": 79.6862, "ARG_OF_PERICENTER": 194.6634, "MEAN_ANOMALY": 165.2235, "EPHEMERIS_TYPE": 0, "CLASSIFICATION_TYPE": "U", "NORAD_CAT_ID": 30096, "ELEMENT_SET_NO": 999, "REV_AT_EPOCH": 98732, "BSTAR": 0.00032708673, "MEAN_MOTION_DOT": 8.55e-06, "MEAN_MOTION_DDOT": 0}, "tle": {"line1": "1 30096U 99025QZ  25359.74058095  .00000855  00000+0  32709-3 0  9996", "line2": "2 30096  99.1465  79.6862 0079712 194.6634 165.2235 14.31714216987324"}}, "geometry": {"type": "Point", "coordinates": [-143.3101381602317, -76.84205611701044]}}, {"type": "Feature", "properties": {"norad_id": 30099, "name": "FENGYUN 1C DEB", "group": "fengyun-1c-debris", "lat": -40.20281979709073, "lon": -115.0517811211896, "alt_km": 769.1135154975855, "timestamp": "2025-12-26T06:43:29.785429+00:00", "meta": {"OBJECT_NAME": "FENGYUN 1C DEB", "OBJECT_ID": "1999-025RC", "EPOCH": "2025-12-25T04:41:26.564640", "MEAN_MOTION": 14.25955048, "ECCENTRICITY": 0.00616666, "INCLINATION": 98.539, "RA_OF_ASC_NODE": 71.1862, "ARG_OF_PERICENTER": 208.0053, "MEAN_ANOMALY": 207.078, "EPHEMERIS_TYPE": 0, "CLASSIFICATION_TYPE": "U", "NORAD_CAT_ID": 30099, "ELEMENT_SET_NO": 999, "REV_AT_EPOCH": 98367, "BSTAR": 0.00030166497, "MEAN_MOTION_DOT": 6.91e-06, "MEAN_MOTION_DDOT": 0}, "tle": {"line1": "1 30099U 99025RC  25359.19544635  .00000691  00000+0  30166-3 0  9991", "line2": "2 30099  98.5390  71.1862 0061666 208.0053 207.0780 14.25955048983675"}}, "geometry": {"type": "Point", "coordinates": [-115.0517811211896, -40.20281979709073]}}, {"type": "Feature", "properties": {"norad_id": 30102, "name": "FENGYUN 1C DEB", "group": "fengyun-1c-debris", "lat": -35.823868708362085, "lon": -178.71821883826703, "alt_km": 848.3049811015335, "timestamp": "2025-12-26T06:43:29.785439+00:00", "meta": {"OBJECT_NAME": "FENGYUN 1C DEB", "OBJECT_ID": "1999-025RF", "EPOCH": "2025-12-24T23:35:16.919808", "MEAN_MOTION": 14.22147873, "ECCENTRICITY": 0.01410054, "INCLINATION": 98.379, "RA_OF_ASC_NODE": 6.1558, "ARG_OF_PERICENTER": 324.3912, "MEAN_ANOMALY": 94.9394, "EPHEMERIS_TYPE": 0, "CLASSIFICATION_TYPE": "U", "NORAD_CAT_ID": 30102, "ELEMENT_SET_NO": 999, "REV_AT_EPOCH": 98132, "BSTAR": 0.00028715723, "MEAN_MOTION_DOT": 6.62e-06, "MEAN_MOTION_DDOT": 0}, "tle": {"line1": "1 30102U 99025RF  25358.98283472  .00000662  00000+0  28716-3 0  9997", "line2": "2 30102  98.3790   6.1558 0141005 324.3912  94.9394 14.22147873981324"}}, "geometry": {"type": "Point", "coordinates": [-178.71821883826703, -35.823868708362085]}}, {"type": "Feature", "properties": {"norad_id": 30103, "name": "FENGYUN 1C DEB", "group": "fengyun-1c-debris", "lat": -8.821474862181969, "lon": -16.078986910224863, "alt_km": 812.9861702874696, "timestamp": "2025-12-26T06:43:29.785449+00:00", "meta": {"OBJECT_NAME": "FENGYUN 1C DEB", "OBJECT_ID": "1999-025RG", "EPOCH": "2025-12-25T22:35:39.323040", "MEAN_MOTION": 14.24885076, "ECCENTRICITY": 0.006431, "INCLINATION": 99.2462, "RA_OF_ASC_NODE": 342.1158, "ARG_OF_PERICENTER": 82.6768, "MEAN_ANOMALY": 332.4134, "EPHEMERIS_TYPE": 0, "CLASSIFICATION_TYPE": "U", "NORAD_CAT_ID": 30103, "ELEMENT_SET_NO": 999, "REV_AT_EPOCH": 98107, "BSTAR": 0.00044108111, "MEAN_MOTION_DOT": 1.004e-05, "MEAN_MOTION_DDOT": 0}, "tle": {"line1": "1 30103U 99025RG  25359.94142735  .00001004  00000+0  44108-3 0  9995", "line2": "2 30103  99.2462 342.1158 0064310  82.6768 332.4134 14.24885076981076"}}, "geometry": {"type": "Point", "coordinates": [-16.078986910224863, -8.821474862181969]}}, {"type": "Feature", "properties": {"norad_id": 30104, "name": "FENGYUN 1C DEB", "group": "fengyun-1c-debris", "lat": -56.69057722776634, "lon": 3.79365251142405, "alt_km": 865.4143606830112, "timestamp": "2025-12-26T06:43:29.785460+00:00", "meta": {"OBJECT_NAME": "FENGYUN 1C DEB", "OBJECT_ID": "1999-025RH", "EPOCH": "2025-12-25T13:01:50.746944", "MEAN_MOTION": 14.25706379, "ECCENTRICITY": 0.0074137, "INCLINATION": 98.3595, "RA_OF_ASC_NODE": 196.0208, "ARG_OF_PERICENTER": 70.8799, "MEAN_ANOMALY": 344.6839, "EPHEMERIS_TYPE": 0, "CLASSIFICATION_TYPE": "U", "NORAD_CAT_ID": 30104, "ELEMENT_SET_NO": 999, "REV_AT_EPOCH": 98075, "BSTAR": 0.000647, "MEAN_MOTION_DOT": 1.539e-05, "MEAN_MOTION_DDOT": 0}, "tle": {"line1": "1 30104U 99025RH  25359.54294846  .00001539  00000+0  64700-3 0  9996", "line2": "2 30104  98.3595 196.0208 0074137  70.8799 344.6839 14.25706379980757"}}, "geometry": {"type": "Point", "coordinates": [3.79365251142405, -56.69057722776634]}}, {"type": "Feature", "properties": {"norad_id": 30105, "name": "FENGYUN 1C DEB", "group": "fengyun-1c-debris", "lat": 38.88721347676471, "lon": 172.98019918302117, "alt_km": 853.5744865865327, "timestamp": "2025-12-26T06:43:29.785470+00:00", "meta": {"OBJECT_NAME": "FENGYUN 1C DEB", "OBJECT_ID": "1999-025RJ", "EPOCH": "2025-12-25T09:48:36.374976", "MEAN_MOTION": 14.21423843, "ECCENTRICITY": 0.0199467, "INCLINATION": 98.5948, "RA_OF_ASC_NODE": 345.1249, "ARG_OF_PERICENTER": 37.3974, "MEAN_ANOMALY": 324.0896, "EPHEMERIS_TYPE": 0, "CLASSIFICATION_TYPE": "U", "NORAD_CAT_ID": 30105, "ELEMENT_SET_NO": 999, "REV_AT_EPOCH": 97942, "BSTAR": 0.00042226, "MEAN_MOTION_DOT": 1.084e-05, "MEAN_MOTION_DDOT": 0}, "tle": {"line1": "1 30105U 99025RJ  25359.40875434  .00001084  00000+0  42226-3 0  9994", "line2": "2 30105  98.5948 345.1249 0199467  37.3974 324.0896 14.21423843979426"}}, "geometry": {"type": "Point", "coordinates": [172.98019918302117, 38.88721347676471]}}, {"type": "Feature", "properties": {"norad_id": 30106, "name": "FENGYUN 1C DEB", "group": "fengyun-1c-debris", "lat": 6.649132675332213, "lon": -91.79671521880887, "alt_km": 639.565548794696, "timestamp": "2025-12-26T06:43:29.785481+00:00", "meta": {"OBJECT_NAME": "FENGYUN 1C DEB", "OBJECT_ID": "1999-025RK", "EPOCH": "2025-12-25T18:02:22.631712", "MEAN_MOTION": 14.86051999, "ECCENTRICITY": 0.00475862, "INCLINATION": 98.9238, "RA_OF_ASC_NODE": 268.6604, "ARG_OF_PERICENTER": 153.9277, "MEAN_ANOMALY": 267.2196, "EPHEMERIS_TYPE": 0, "CLASSIFICATION_TYPE": "U", "NORAD_CAT_ID": 30106, "ELEMENT_SET_NO": 999, "REV_AT_EPOCH": 98738, "BSTAR": 0.0042409187, "MEAN_MOTION_DOT": 0.00038001, "MEAN_MOTION_DDOT": 0}, "tle": {"line1": "1 30106U 99025RK  25359.75165083  .00038001  00000+0  42409-2 0  9996", "line2": "2 30106  98.9238 268.6604 0047586 153.9277 267.2196 14.86051999987387"}}, "geometry": {"type": "Point", "coordinates": [-91.79671521880887, 6.649132675332213]}}, {"type": "Feature", "properties": {"norad_id": 30107, "name": "FENGYUN 1C DEB", "group": "fengyun-1c-debris", "lat": 65.30319785698033, "lon": 37.282076588424324, "alt_km": 927.8031030789389, "timestamp": "2025-12-26T06:43:29.785491+00:00", "meta": {"OBJECT_NAME": "FENGYUN 1C DEB", "OBJECT_ID": "1999-025RL", "EPOCH": "2025-12-25T15:07:23.752992", "MEAN_MOTION": 14.14429942, "ECCENTRICITY": 0.0126525, "INCLINATION": 98.8452, "RA_OF_ASC_NODE": 56.4297, "ARG_OF_PERICENTER": 238.6875, "MEAN_ANOMALY": 120.1861, "EPHEMERIS_TYPE": 0, "CLASSIFICATION_TYPE": "U", "NORAD_CAT_ID": 30107, "ELEMENT_SET_NO": 999, "REV_AT_EPOCH": 97743, "BSTAR": 0.00014244, "MEAN_MOTION_DOT": 2.5e-06, "MEAN_MOTION_DDOT": 0}, "tle": {"line1": "1 30107U 99025RL  25359.63013603  .00000250  00000+0  14244-3 0  9996", "line2": "2 30107  98.8452  56.4297 0126525 238.6875 120.1861 14.14429942977431"}}, "geometry": {"type": "Point", "coordinates": [37.282076588424324, 65.30319785698033]}}, {"type": "Feature", "properties": {"norad_id": 30108, "name": "FENGYUN 1C DEB", "group": "fengyun-1c-debris", "lat": 71.36692840900068, "lon": -167.3309321633645, "alt_km": 903.7919164030327, "timestamp": "2025-12-26T06:43:29.785501+00:00", "meta": {"OBJECT_NAME": "FENGYUN 1C DEB", "OBJECT_ID": "1999-025RM", "EPOCH": "2025-12-25T10:37:18.307200", "MEAN_MOTION": 14.17197084, "ECCENTRICITY": 0.0196948, "INCLINATION": 98.6614, "RA_OF_ASC_NODE": 344.9759, "ARG_OF_PERICENTER": 345.7129, "MEAN_ANOMALY": 167.7898, "EPHEMERIS_TYPE": 0, "CLASSIFICATION_TYPE": "U", "NORAD_CAT_ID": 30108, "ELEMENT_SET_NO": 999, "REV_AT_EPOCH": 97778, "BSTAR": 0.00041984, "MEAN_MOTION_DOT": 9.79e-06, "MEAN_MOTION_DDOT": 0}, "tle": {"line1": "1 30108U 99025RM  25359.44257300  .00000979  00000+0  41984-3 0  9999", "line2": "2 30108  98.6614 344.9759 0196948 345.7129 167.7898 14.17197084977783"}}, "geometry": {"type": "Point", "coordinates": [-167.3309321633645, 71.36692840900068]}}, {"type": "Feature", "properties": {"norad_id": 30109, "name": "FENGYUN 1C DEB", "group": "fengyun-1c-debris", "lat": -54.03767635430339, "lon": 161.31805446209574, "alt_km": 749.3284408452719, "timestamp": "2025-12-26T06:43:29.785512+00:00", "meta": {"OBJECT_NAME": "FENGYUN 1C DEB", "OBJECT_ID": "1999-025RN", "EPOCH": "2025-12-25T23:06:46.626624", "MEAN_MOTION": 14.17568162, "ECCENTRICITY": 0.01678161, "INCLINATION": 98.5087, "RA_OF_ASC_NODE": 352.9216, "ARG_OF_PERICENTER": 194.0476, "MEAN_ANOMALY": 221.8766, "EPHEMERIS_TYPE": 0, "CLASSIFICATION_TYPE": "U", "NORAD_CAT_ID": 30109, "ELEMENT_SET_NO": 999, "REV_AT_EPOCH": 97739, "BSTAR": 0.00028248951, "MEAN_MOTION_DOT": 6.17e-06, "MEAN_MOTION_DDOT": 0}, "tle": {"line1": "1 30109U 99025RN  25359.96303966  .00000617  00000+0  28249-3 0  9995", "line2": "2 30109  98.5087 352.9216 0167816 194.0476 221.8766 14.17568162977398"}}, "geometry": {"type": "Point", "coordinates": [161.31805446209574, -54.03767635430339]}}]}